{"type":"FeatureCollection","features":[{"type":"Feature","properties":{"name":"Mazatzal Wilderness","gis_acres":250813.038},"geometry":{"type":"Polygon","coordinates":[[[-111.67475,34.0738],[-111.68233,34.07382],[-111.68256,34.00135],[-111.64302,34.0013],[-111.64312,33.97231],[-111.62571,33.97229],[-111.62582,33.9433],[-111.60842,33.94327],[-111.60853,33.91428],[-111.59113,33.91425],[-111.59119,33.89961],[-111.50427,33.89947],[-111.50411,33.98611],[-111.48645,33.98631],[-111.48647,34.01534],[-111.41615,34.01613],[-111.41635,34.07365],[-111.42982,34.07352],[-111.42992,34.10257],[-111.4472,34.1024],[-111.44731,34.13145],[-111.46459,34.13128],[-111.46489,34.20346],[-111.48219,34.20329],[-111.48241,34.33373],[-111.63406,34.33378],[-111.63027,34.33692],[-111.63479,34.33884],[-111.63126,34.33948],[-111.62842,34.34357],[-111.61776,34.34728],[-111.62278,34.35035],[-111.61772,34.35406],[-111.60461,34.36136],[-111.60215,34.36338],[-111.59595,34.36102],[-111.59222,34.36114],[-111.58884,34.35976],[-111.58707,34.36031],[-111.58414,34.36303],[-111.58119,34.36263],[-111.57993,34.36364],[-111.5752,34.36268],[-111.57195,34.36457],[-111.56936,34.36445],[-111.56785,34.36541],[-111.5653,34.36587],[-111.56336,34.369],[-111.56533,34.36996],[-111.5659,34.37144],[-111.56759,34.36972],[-111.56883,34.3694],[-111.57378,34.3708],[-111.57387,34.37225],[-111.57161,34.37398],[-111.57213,34.37612],[-111.57164,34.37728],[-111.57067,34.37666],[-111.56837,34.37664],[-111.56716,34.37798],[-111.56392,34.37919],[-111.56316,34.38156],[-111.56469,34.38248],[-111.56361,34.38507],[-111.5643,34.38684],[-111.56209,34.38877],[-111.56182,34.39037],[-111.55911,34.3904],[-111.55763,34.38886],[-111.5552,34.38938],[-111.5556,34.39007],[-111.55749,34.38998],[-111.55897,34.39176],[-111.56281,34.39194],[-111.5639,34.39116],[-111.56468,34.3891],[-111.5679,34.38929],[-111.56875,34.38707],[-111.56765,34.38547],[-111.56855,34.38372],[-111.5702,34.38365],[-111.573,34.38597],[-111.57594,34.38692],[-111.57732,34.38659],[-111.57806,34.38533],[-111.57958,34.38593],[-111.58394,34.38503],[-111.58483,34.38384],[-111.58528,34.38104],[-111.58349,34.37735],[-111.58375,34.3755],[-111.58781,34.3744],[-111.58848,34.37346],[-111.59201,34.37446],[-111.59155,34.37514],[-111.58862,34.37563],[-111.58709,34.37783],[-111.58745,34.38061],[-111.58975,34.38233],[-111.59163,34.37954],[-111.5934,34.37948],[-111.59289,34.38046],[-111.593,34.3838],[-111.59457,34.3862],[-111.60336,34.37868],[-111.60762,34.37272],[-111.61638,34.36937],[-111.62829,34.36745],[-111.63072,34.36954],[-111.63657,34.36723],[-111.6398,34.36128],[-111.63945,34.35541],[-111.64128,34.35353],[-111.64289,34.35302],[-111.64283,34.35227],[-111.6452,34.35003],[-111.6458,34.34733],[-111.64766,34.34758],[-111.64958,34.3443],[-111.64962,34.34056],[-111.6532,34.33908],[-111.65363,34.33933],[-111.65253,34.34087],[-111.65547,34.3429],[-111.65545,34.34392],[-111.65919,34.34591],[-111.65811,34.34896],[-111.65879,34.35258],[-111.65766,34.35713],[-111.65388,34.35629],[-111.65484,34.35734],[-111.65414,34.35793],[-111.65361,34.36053],[-111.65261,34.36123],[-111.65174,34.36073],[-111.6519,34.36164],[-111.65006,34.36177],[-111.64938,34.36308],[-111.64952,34.36597],[-111.64865,34.36632],[-111.64899,34.36686],[-111.65207,34.36589],[-111.63746,34.38406],[-111.63238,34.38574],[-111.62532,34.38611],[-111.62075,34.38195],[-111.61118,34.38087],[-111.60602,34.38363],[-111.60879,34.39152],[-111.6169,34.40207],[-111.61825,34.40012],[-111.62319,34.39972],[-111.62657,34.39656],[-111.62886,34.39628],[-111.63037,34.39352],[-111.63011,34.39301],[-111.64367,34.39191],[-111.64755,34.39307],[-111.64896,34.39003],[-111.6534,34.38898],[-111.65552,34.38751],[-111.66022,34.3821],[-111.66026,34.37687],[-111.66272,34.37684],[-111.66435,34.37604],[-111.66438,34.3754],[-111.66286,34.37445],[-111.66309,34.3718],[-111.66423,34.37058],[-111.66287,34.36821],[-111.66692,34.36232],[-111.67606,34.35671],[-111.67653,34.3558],[-111.67704,34.35368],[-111.6765,34.35022],[-111.67705,34.3492],[-111.67655,34.34565],[-111.67958,34.34195],[-111.67984,34.33937],[-111.67678,34.33693],[-111.67435,34.33666],[-111.673,34.3344],[-111.67304,34.33274],[-111.67202,34.332],[-111.67198,34.33073],[-111.67437,34.33056],[-111.67177,34.32709],[-111.67157,34.32181],[-111.67378,34.32598],[-111.67578,34.32757],[-111.67679,34.32969],[-111.67951,34.33204],[-111.6796,34.33303],[-111.68261,34.33632],[-111.68352,34.34096],[-111.69254,34.34623],[-111.70423,34.33249],[-111.7054,34.32996],[-111.70382,34.32978],[-111.7028,34.3285],[-111.70381,34.32617],[-111.7037,34.32401],[-111.70229,34.3237],[-111.70581,34.3224],[-111.70593,34.32086],[-111.70432,34.31887],[-111.70196,34.31899],[-111.69517,34.31476],[-111.69496,34.31176],[-111.69339,34.30921],[-111.69379,34.30526],[-111.69192,34.30411],[-111.6917,34.30052],[-111.68988,34.29785],[-111.69097,34.29694],[-111.69071,34.29428],[-111.68762,34.29225],[-111.68324,34.28809],[-111.69005,34.27508],[-111.70584,34.26826],[-111.70923,34.26796],[-111.7116,34.26575],[-111.71379,34.25972],[-111.71484,34.25904],[-111.71529,34.25519],[-111.72418,34.25569],[-111.7318,34.24883],[-111.73193,34.23936],[-111.73346,34.23727],[-111.73126,34.23324],[-111.73488,34.22541],[-111.73436,34.22415],[-111.73723,34.22272],[-111.73881,34.22098],[-111.73891,34.21955],[-111.74059,34.21693],[-111.73626,34.21015],[-111.73971,34.20942],[-111.74164,34.20795],[-111.74243,34.20539],[-111.74165,34.20239],[-111.74296,34.19844],[-111.74222,34.19595],[-111.74573,34.1913],[-111.74553,34.18883],[-111.74387,34.18677],[-111.74576,34.17917],[-111.74333,34.17641],[-111.73219,34.17082],[-111.73039,34.16783],[-111.72332,34.16483],[-111.72086,34.16298],[-111.72089,34.15902],[-111.71917,34.15707],[-111.73132,34.15006],[-111.73748,34.14872],[-111.74064,34.14922],[-111.74614,34.14297],[-111.74572,34.13798],[-111.74448,34.13454],[-111.74151,34.13206],[-111.74033,34.1302],[-111.74069,34.12771],[-111.73952,34.12277],[-111.74023,34.12135],[-111.74005,34.12011],[-111.7377,34.11725],[-111.7354,34.11071],[-111.7314,34.10432],[-111.72983,34.10385],[-111.72865,34.10206],[-111.72356,34.10143],[-111.72114,34.10233],[-111.71617,34.09928],[-111.7161,34.09557],[-111.70412,34.08541],[-111.69937,34.0862],[-111.69946,34.08711],[-111.70066,34.08783],[-111.69644,34.08919],[-111.69444,34.09208],[-111.69079,34.09376],[-111.68844,34.09599],[-111.67795,34.09843],[-111.67449,34.09985],[-111.67475,34.0738]]]}}]}